[{"CCSDS_OMM_VERS": "2.0", "COMMENT": "GENERATED VIA SPACE-TRACK.ORG API", "CREATION_DATE": "2021-12-07T04:26:36", "ORIGINATOR": "18 SPCS", "OBJECT_NAME": "ARIANE 44L+3 R/B", "OBJECT_ID": "1995-067C", "CENTER_NAME": "EARTH", "REF_FRAME": "TEME", "TIME_SYSTEM": "UTC", "MEAN_ELEMENT_THEORY": "SGP4", "EPOCH": "2021-12-06T02:36:28.947168", "MEAN_MOTION": "2.89653023", "ECCENTRICITY": "0.67947100", "INCLINATION": "7.0022", "RA_OF_ASC_NODE": "295.2680", "ARG_OF_PERICENTER": "295.2801", "MEAN_ANOMALY": "11.0090", "EPHEMERIS_TYPE": "0", "CLASSIFICATION_TYPE": "U", "NORAD_CAT_ID": "23732", "ELEMENT_SET_NO": "999", "REV_AT_EPOCH": "24876", "BSTAR": "0.00143480000000", "MEAN_MOTION_DOT": "0.00003934", "MEAN_MOTION_DDOT": "0.0000000000000", "SEMIMAJOR_AXIS": "20788.180", "PERIOD": "497.147", "APOAPSIS": "28535.010", "PERIAPSIS": "285.079", "OBJECT_TYPE": "ROCKET BODY", "RCS_SIZE": "LARGE", "COUNTRY_CODE": "FR", "LAUNCH_DATE": "1995-12-06", "SITE": "FRGUI", "DECAY_DATE": null, "FILE": "3234296", "GP_ID": "191220469", "TLE_LINE0": "0 ARIANE 44L+3 R/B", "TLE_LINE1": "1 23732U 95067C   21340.10866837  .00003934  00000-0  14348-2 0  9994", "TLE_LINE2": "2 23732   7.0022 295.2680 6794710 295.2801  11.0090  2.89653023248769"}, {"CCSDS_OMM_VERS": "2.0", "COMMENT": "GENERATED VIA SPACE-TRACK.ORG API", "CREATION_DATE": "2021-12-06T18:34:27", "ORIGINATOR": "18 SPCS", "OBJECT_NAME": "GP-B", "OBJECT_ID": "2004-014A", "CENTER_NAME": "EARTH", "REF_FRAME": "TEME", "TIME_SYSTEM": "UTC", "MEAN_ELEMENT_THEORY": "SGP4", "EPOCH": "2021-12-06T13:47:10.489344", "MEAN_MOTION": "14.78870410", "ECCENTRICITY": "0.00033420", "INCLINATION": "89.8163", "RA_OF_ASC_NODE": "86.1688", "ARG_OF_PERICENTER": "91.3165", "MEAN_ANOMALY": "268.8441", "EPHEMERIS_TYPE": "0", "CLASSIFICATION_TYPE": "U", "NORAD_CAT_ID": "28230", "ELEMENT_SET_NO": "999", "REV_AT_EPOCH": "40764", "BSTAR": "0.00002664000000", "MEAN_MOTION_DOT": "0.00000213", "MEAN_MOTION_DDOT": "0.0000000000000", "SEMIMAJOR_AXIS": "7011.029", "PERIOD": "97.372", "APOAPSIS": "635.237", "PERIAPSIS": "630.551", "OBJECT_TYPE": "PAYLOAD", "RCS_SIZE": "LARGE", "COUNTRY_CODE": "US", "LAUNCH_DATE": "2004-04-20", "SITE": "AFWTR", "DECAY_DATE": null, "FILE": "3234035", "GP_ID": "191190324", "TLE_LINE0": "0 GP-B", "TLE_LINE1": "1 28230U 04014A   21340.57442696  .00000213  00000-0  26640-4 0  9995", "TLE_LINE2": "2 28230  89.8163  86.1688 0003342  91.3165 268.8441 14.78870410407640"}, {"CCSDS_OMM_VERS": "2.0", "COMMENT": "GENERATED VIA SPACE-TRACK.ORG API", "CREATION_DATE": "2021-12-07T06:26:11", "ORIGINATOR": "18 SPCS", "OBJECT_NAME": "ALOS", "OBJECT_ID": "2006-002A", "CENTER_NAME": "EARTH", "REF_FRAME": "TEME", "TIME_SYSTEM": "UTC", "MEAN_ELEMENT_THEORY": "SGP4", "EPOCH": "2021-12-06T23:47:53.991168", "MEAN_MOTION": "14.62934177", "ECCENTRICITY": "0.00011080", "INCLINATION": "97.9106", "RA_OF_ASC_NODE": "308.3862", "ARG_OF_PERICENTER": "115.6467", "MEAN_ANOMALY": "244.4841", "EPHEMERIS_TYPE": "0", "CLASSIFICATION_TYPE": "U", "NORAD_CAT_ID": "28931", "ELEMENT_SET_NO": "999", "REV_AT_EPOCH": "84628", "BSTAR": "0.00006852500000", "MEAN_MOTION_DOT": "0.00000306", "MEAN_MOTION_DDOT": "0.0000000000000", "SEMIMAJOR_AXIS": "7061.853", "PERIOD": "98.432", "APOAPSIS": "684.500", "PERIAPSIS": "682.935", "OBJECT_TYPE": "PAYLOAD", "RCS_SIZE": "LARGE", "COUNTRY_CODE": "JPN", "LAUNCH_DATE": "2006-01-24", "SITE": "TNSTA", "DECAY_DATE": null, "FILE": "3234328", "GP_ID": "191237861", "TLE_LINE0": "0 ALOS", "TLE_LINE1": "1 28931U 06002A   21340.99159712  .00000306  00000-0  68525-4 0  9993", "TLE_LINE2": "2 28931  97.9106 308.3862 0001108 115.6467 244.4841 14.62934177846286"}, {"CCSDS_OMM_VERS": "2.0", "COMMENT": "GENERATED VIA SPACE-TRACK.ORG API", "CREATION_DATE": "2021-12-07T04:26:36", "ORIGINATOR": "18 SPCS", "OBJECT_NAME": "PSLV R/B", "OBJECT_ID": "2007-001E", "CENTER_NAME": "EARTH", "REF_FRAME": "TEME", "TIME_SYSTEM": "UTC", "MEAN_ELEMENT_THEORY": "SGP4", "EPOCH": "2021-12-06T21:32:20.582016", "MEAN_MOTION": "14.85933504", "ECCENTRICITY": "0.00256070", "INCLINATION": "97.9819", "RA_OF_ASC_NODE": "316.5484", "ARG_OF_PERICENTER": "142.0736", "MEAN_ANOMALY": "218.2289", "EPHEMERIS_TYPE": "0", "CLASSIFICATION_TYPE": "U", "NORAD_CAT_ID": "29713", "ELEMENT_SET_NO": "999", "REV_AT_EPOCH": "80649", "BSTAR": "0.00004897800000", "MEAN_MOTION_DOT": "0.00000373", "MEAN_MOTION_DDOT": "0.0000000000000", "SEMIMAJOR_AXIS": "6988.794", "PERIOD": "96.909", "APOAPSIS": "628.556", "PERIAPSIS": "592.763", "OBJECT_TYPE": "ROCKET BODY", "RCS_SIZE": "LARGE", "COUNTRY_CODE": "IND", "LAUNCH_DATE": "2007-01-10", "SITE": "SRI", "DECAY_DATE": null, "FILE": "3234296", "GP_ID": "191221264", "TLE_LINE0": "0 PSLV R/B", "TLE_LINE1": "1 29713U 07001E   21340.89746044  .00000373  00000-0  48978-4 0  9995", "TLE_LINE2": "2 29713  97.9819 316.5484 0025607 142.0736 218.2289 14.85933504806492"}, {"CCSDS_OMM_VERS": "2.0", "COMMENT": "GENERATED VIA SPACE-TRACK.ORG API", "CREATION_DATE": "2021-12-07T06:46:11", "ORIGINATOR": "18 SPCS", "OBJECT_NAME": "H-2A R/B", "OBJECT_ID": "2009-002J", "CENTER_NAME": "EARTH", "REF_FRAME": "TEME", "TIME_SYSTEM": "UTC", "MEAN_ELEMENT_THEORY": "SGP4", "EPOCH": "2021-12-07T02:21:33.220224", "MEAN_MOTION": "14.87717609", "ECCENTRICITY": "0.00488140", "INCLINATION": "98.1078", "RA_OF_ASC_NODE": "270.0038", "ARG_OF_PERICENTER": "189.9122", "MEAN_ANOMALY": "170.1135", "EPHEMERIS_TYPE": "0", "CLASSIFICATION_TYPE": "U", "NORAD_CAT_ID": "33500", "ELEMENT_SET_NO": "999", "REV_AT_EPOCH": "69751", "BSTAR": "0.00004759900000", "MEAN_MOTION_DOT": "0.00000382", "MEAN_MOTION_DDOT": "0.0000000000000", "SEMIMAJOR_AXIS": "6983.206", "PERIOD": "96.793", "APOAPSIS": "639.159", "PERIAPSIS": "570.983", "OBJECT_TYPE": "ROCKET BODY", "RCS_SIZE": "LARGE", "COUNTRY_CODE": "JPN", "LAUNCH_DATE": "2009-01-23", "SITE": "TNSTA", "DECAY_DATE": null, "FILE": "3234434", "GP_ID": "191240789", "TLE_LINE0": "0 H-2A R/B", "TLE_LINE1": "1 33500U 09002J   21341.09830116  .00000382  00000-0  47599-4 0  9992", "TLE_LINE2": "2 33500  98.1078 270.0038 0048814 189.9122 170.1135 14.87717609697519"}, {"CCSDS_OMM_VERS": "2.0", "COMMENT": "GENERATED VIA SPACE-TRACK.ORG API", "CREATION_DATE": "2021-12-07T06:56:12", "ORIGINATOR": "18 SPCS", "OBJECT_NAME": "SL-4 R/B", "OBJECT_ID": "2014-021B", "CENTER_NAME": "EARTH", "REF_FRAME": "TEME", "TIME_SYSTEM": "UTC", "MEAN_ELEMENT_THEORY": "SGP4", "EPOCH": "2021-12-07T02:52:15.874752", "MEAN_MOTION": "15.07436647", "ECCENTRICITY": "0.01687690", "INCLINATION": "51.6147", "RA_OF_ASC_NODE": "130.6774", "ARG_OF_PERICENTER": "10.3898", "MEAN_ANOMALY": "350.0490", "EPHEMERIS_TYPE": "0", "CLASSIFICATION_TYPE": "U", "NORAD_CAT_ID": "39679", "ELEMENT_SET_NO": "999", "REV_AT_EPOCH": "42041", "BSTAR": "0.00003806900000", "MEAN_MOTION_DOT": "0.00000425", "MEAN_MOTION_DDOT": "0.0000000000000", "SEMIMAJOR_AXIS": "6922.173", "PERIOD": "95.526", "APOAPSIS": "660.863", "PERIAPSIS": "427.213", "OBJECT_TYPE": "ROCKET BODY", "RCS_SIZE": "LARGE", "COUNTRY_CODE": "CIS", "LAUNCH_DATE": "2014-04-16", "SITE": "TTMTR", "DECAY_DATE": null, "FILE": "3234467", "GP_ID": "191241166", "TLE_LINE0": "0 SL-4 R/B", "TLE_LINE1": "1 39679U 14021B   21341.11962818  .00000425  00000-0  38069-4 0  9990", "TLE_LINE2": "2 39679  51.6147 130.6774 0168769  10.3898 350.0490 15.07436647420419"}, {"CCSDS_OMM_VERS": "2.0", "COMMENT": "GENERATED VIA SPACE-TRACK.ORG API", "CREATION_DATE": "2021-12-07T04:26:36", "ORIGINATOR": "18 SPCS", "OBJECT_NAME": "GRACE-FO 1", "OBJECT_ID": "2018-047A", "CENTER_NAME": "EARTH", "REF_FRAME": "TEME", "TIME_SYSTEM": "UTC", "MEAN_ELEMENT_THEORY": "SGP4", "EPOCH": "2021-12-06T21:06:20.121120", "MEAN_MOTION": "15.24320317", "ECCENTRICITY": "0.00176060", "INCLINATION": "88.9851", "RA_OF_ASC_NODE": "64.6593", "ARG_OF_PERICENTER": "18.1481", "MEAN_ANOMALY": "342.0391", "EPHEMERIS_TYPE": "0", "CLASSIFICATION_TYPE": "U", "NORAD_CAT_ID": "43476", "ELEMENT_SET_NO": "999", "REV_AT_EPOCH": "19707", "BSTAR": "0.00002501700000", "MEAN_MOTION_DOT": "0.00000645", "MEAN_MOTION_DDOT": "0.0000000000000", "SEMIMAJOR_AXIS": "6870.964", "PERIOD": "94.468", "APOAPSIS": "504.926", "PERIAPSIS": "480.732", "OBJECT_TYPE": "PAYLOAD", "RCS_SIZE": "MEDIUM", "COUNTRY_CODE": "US", "LAUNCH_DATE": "2018-05-22", "SITE": "AFWTR", "DECAY_DATE": null, "FILE": "3234296", "GP_ID": "191230500", "TLE_LINE0": "0 GRACE-FO 1", "TLE_LINE1": "1 43476U 18047A   21340.87939955  .00000645  00000-0  25017-4 0  9993", "TLE_LINE2": "2 43476  88.9851  64.6593 0017606  18.1481 342.0391 15.24320317197075"}, {"CCSDS_OMM_VERS": "2.0", "COMMENT": "GENERATED VIA SPACE-TRACK.ORG API", "CREATION_DATE": "2021-12-07T04:26:36", "ORIGINATOR": "18 SPCS", "OBJECT_NAME": "GRACE-FO 2", "OBJECT_ID": "2018-047B", "CENTER_NAME": "EARTH", "REF_FRAME": "TEME", "TIME_SYSTEM": "UTC", "MEAN_ELEMENT_THEORY": "SGP4", "EPOCH": "2021-12-06T21:06:47.858112", "MEAN_MOTION": "15.24320480", "ECCENTRICITY": "0.00176030", "INCLINATION": "88.9851", "RA_OF_ASC_NODE": "64.6626", "ARG_OF_PERICENTER": "18.1588", "MEAN_ANOMALY": "342.0285", "EPHEMERIS_TYPE": "0", "CLASSIFICATION_TYPE": "U", "NORAD_CAT_ID": "43477", "ELEMENT_SET_NO": "999", "REV_AT_EPOCH": "19707", "BSTAR": "0.00002501500000", "MEAN_MOTION_DOT": "0.00000645", "MEAN_MOTION_DDOT": "0.0000000000000", "SEMIMAJOR_AXIS": "6870.964", "PERIOD": "94.468", "APOAPSIS": "504.924", "PERIAPSIS": "480.734", "OBJECT_TYPE": "PAYLOAD", "RCS_SIZE": "MEDIUM", "COUNTRY_CODE": "US", "LAUNCH_DATE": "2018-05-22", "SITE": "AFWTR", "DECAY_DATE": null, "FILE": "3234296", "GP_ID": "191231752", "TLE_LINE0": "0 GRACE-FO 2", "TLE_LINE1": "1 43477U 18047B   21340.87972058  .00000645  00000-0  25015-4 0  9993", "TLE_LINE2": "2 43477  88.9851  64.6626 0017603  18.1588 342.0285 15.24320480197071"}]